ASTRA 2E                
1 39285U 13056A   22157.46099951  .00000161  00000+0  00000+0 0  9998
2 39285   0.0581 347.6609 0002264  83.1614  18.4326  1.00271459 31686
FM-6                    
1 39360U 13058A   22157.53358608 -.00000005  00000+0  00000+0 0  9997
2 39360   0.0292 295.4327 0000638  19.1216  16.2975  1.00271405 31302
RADUGA-1M 3             
1 39375U 13062A   22157.53404066  .00000167  00000+0  00000+0 0  9996
2 39375   2.2036  89.9435 0004047 144.4013 247.8175  1.00272164 31373
SES-8                   
1 39460U 13071A   22157.11550008 -.00000259  00000+0  00000+0 0  9996
2 39460   0.0227 259.9556 0002723 178.1078 313.0280  1.00271956 31116
INMARSAT 5-F1           
1 39476U 13073A   22157.00396549  .00000039  00000+0  00000+0 0  9996
2 39476   0.0182 352.1487 0000175 205.2263 121.0480  1.00270314 30822
TKSAT-1 (TUPAC KATARI)  
1 39481U 13075A   22157.43790361 -.00000184  00000+0  00000+0 0  9993
2 39481   0.0112  98.7988 0002515 317.0685 269.4231  1.00272820 30836
EXPRESS-AM5             
1 39487U 13077A   22157.26794453 -.00000269  00000+0  00000+0 0  9992
2 39487   0.0211 228.6354 0001175 102.9844 159.5266  1.00270201 31594
GSAT-14                 
1 39498U 14001A   22157.54180309 -.00000066  00000+0  00000+0 0  9997
2 39498   0.0254 267.1432 0001763 358.9399 257.9249  1.00270971 30642
THAICOM 6               
1 39500U 14002A   22157.54267525 -.00000110  00000+0  00000+0 0  9998
2 39500   0.0662 123.3036 0003502 343.0795  62.4176  1.00271957 30700
TDRS 12                 
1 39504U 14004A   22157.51886810 -.00000262  00000+0  00000+0 0  9993
2 39504   3.8689 347.1168 0005250 115.5292 298.0985  1.00267560 29520
ABS-2                   
1 39508U 14006A   22157.57429559 -.00000075  00000+0  00000+0 0  9990
2 39508   0.0286  33.4293 0004090  15.4892 127.7148  1.00271987 30535
ATHENA-FIDUS            
1 39509U 14006B   22157.53456397  .00000165  00000+0  00000+0 0  9996
2 39509   0.0108 349.7125 0001368  77.2429  58.1988  1.00269951 30327
TURKSAT 4A              
1 39522U 14007A   22157.46364434  .00000157  00000+0  00000+0 0  9995
2 39522   0.0166 285.6732 0000451  96.5152  81.5953  1.00273918 30237
EXPRESS-AT1             
1 39612U 14010A   22156.74894420  .00000089  00000+0  00000+0 0  9996
2 39612   0.0275 204.4125 0000151 276.4880  98.8780  1.00272802 30282
EXPRESS-AT2             
1 39613U 14010B   22156.77202034 -.00000271  00000+0  00000+0 0  9998
2 39613   0.0116 234.8593 0000201  25.9204  51.1573  1.00270494 30115
AMAZONAS 4A             
1 39616U 14011A   22157.51232674 -.00000241  00000+0  00000+0 0  9995
2 39616   0.0174 356.2418 0003090  88.3067 280.7926  1.00274466 29940
ASTRA 5B                
1 39617U 14011B   22157.31806214  .00000166  00000+0  00000+0 0  9996
2 39617   0.0407 327.0741 0003567 113.8818 319.7707  1.00274088 29908
IRNSS-1B                
1 39635U 14017A   22157.39441128  .00000097  00000+0  00000+0 0  9992
2 39635  28.7644 265.2909 0022948 184.4640   2.2217  1.00278843 30026
LUCH 5V                 
1 39727U 14023A   22157.54590233 -.00000257  00000+0  00000+0 0  9999
2 39727   1.4724  75.2720 0003835  29.7988  81.0789  1.00268136 29600
KAZSAT-3                
1 39728U 14023B   22156.98521675  .00000071  00000+0  00000+0 0  9994
2 39728   0.0187  67.2886 0000681  80.1844 160.0876  1.00273459 27686
EUTELSAT 3B             
1 39773U 14030A   22157.38411954  .00000031  00000+0  00000+0 0  9991
2 39773   0.0620   8.1298 0005717 144.2114 243.8140  1.00271303 29307
ASIASAT 8 (AMOS-7)      
1 40107U 14046A   22157.31099747 -.00000022  00000+0  00000+0 0  9997
2 40107   0.0464 135.3682 0001776 294.2038 293.2115  1.00272214 87383
ASIASAT 6               
1 40141U 14052A   22156.97691367 -.00000352  00000+0  00000+0 0  9995
2 40141   0.0250 271.9048 0000629  99.0801 354.9979  1.00272439 28402
OPTUS 10                
1 40146U 14054A   22156.90830537 -.00000137  00000+0  00000+0 0  9990
2 40146   0.0876  20.3827 0003043  74.8476 282.0650  1.00271645 28263
MEASAT-3B               
1 40147U 14054B   22157.58660566 -.00000230  00000+0  00000+0 0  9993
2 40147   0.0647  66.4921 0003167   2.3277 128.8287  1.00270410 28158
LUCH (OLYMP)            
1 40258U 14058A   22157.46765635  .00000045  00000+0  00000+0 0  9993
2 40258   0.0587 107.6648 0000545  52.7508 324.6781  1.00271528 28180
HIMAWARI-8              
1 40267U 14060A   22157.48337031 -.00000264  00000+0  00000+0 0  9997
2 40267   0.0243  90.7766 0000688 357.2466 121.5237  1.00273629 28001
IRNSS-1C                
1 40269U 14061A   22157.54363465 -.00000148  00000+0  00000+0 0  9998
2 40269   2.9390 129.2214 0020285   7.2857  37.1778  1.00270252 27936
INTELSAT 30 (IS-30)     
1 40271U 14062A   22157.36458267 -.00000139  00000+0  00000+0 0  9997
2 40271   0.0183 328.1995 0001370 113.3560 209.3937  1.00270583 27823
ARSAT 1                 
1 40272U 14062B   22157.51276282 -.00000248  00000+0  00000+0 0  9991
2 40272   0.0297  64.8656 0001478   2.1932 300.6395  1.00271899 27852
EXPRESS-AM6             
1 40277U 14064A   22157.53761661  .00000109  00000+0  00000+0 0  9995
2 40277   0.0173 243.9673 0000264 243.0562  14.4490  1.00273415 27915
GSAT-16                 
1 40332U 14078A   22157.46626087  .00000096  00000+0  00000+0 0  9991
2 40332   0.0292  97.0974 0007459 349.4315  31.2478  1.00271727 27356
DIRECTV 14              
1 40333U 14078B   22157.43554872 -.00000113  00000+0  00000+0 0  9992
2 40333   0.0521  95.8895 0001237  66.5807 149.9088  1.00268764 27307
YAMAL 401               
1 40345U 14082A   22157.32968272 -.00000218  00000+0  00000+0 0  9997
2 40345   0.0092 330.8786 0000419 129.9097   2.5567  1.00274341 27168
ASTRA 2G                
1 40364U 14089A   22157.46091229  .00000161  00000+0  00000+0 0  9995
2 40364   0.0309 354.1890 0004817  74.1084  20.6999  1.00272039 27216
FENGYUN 2G              
1 40367U 14090A   22157.57706409 -.00000292  00000+0  00000+0 0  9991
2 40367   1.9077  89.5566 0001552 352.0491 121.0062  1.00268842 27240
MUOS-3                  
1 40374U 15002A   22157.39493694 -.00000118  00000+0  00000+0 0  9999
2 40374   2.5545  12.3071 0053326 175.6979 193.4773  1.00272013 26837
INMARSAT 5-F2           
1 40384U 15005A   22157.30070573 -.00000274  00000+0  00000+0 0  9994
2 40384   0.0175 346.5299 0000037 339.2361 342.1851  1.00271297 26224
ABS-3A                  
1 40424U 15010A   22157.38298571 -.00000015  00000+0  00000+0 0  9996
2 40424   0.0152  69.0619 0001996 288.0608  32.5503  1.00272435 26620
EUTELSAT 115 WEST B     
1 40425U 15010B   22157.53515331 -.00000013  00000+0  00000+0 0  9998
2 40425   0.0072 133.5199 0000105 331.1158 228.0284  1.00272379 26640
EXPRESS-AM7             
1 40505U 15012A   22157.46329545  .00000162  00000+0  00000+0 0  9995
2 40505   0.0183 342.9178 0002980  92.9495  25.7655  1.00270791 26251
IRNSS-1D                
1 40547U 15018A   22156.72132556 -.00000283  00000+0  00000+0 0  9994
2 40547  28.5921 265.3362 0023215 184.8339 175.2893  1.00265382 26230
BEIDOU 17               
1 40549U 15019A   22157.40185112 -.00000150  00000+0  00000+0 0  9992
2 40549  51.9050 312.8822 0036248 192.7505 344.9024  1.00299269 26329
THOR 7                  
1 40613U 15022A   22157.23986029  .00000003  00000+0  00000+0 0  9991
2 40613   0.0427 124.7048 0002515 306.6045 269.0199  1.00272292 26056
TURKMENALEM52E/MONACOSAT
1 40617U 15023A   22157.46565035  .00000115  00000+0  00000+0 0  9995
2 40617   0.0221  73.0758 0002423   6.0173  35.4144  1.00270859 26082
DIRECTV 15              
1 40663U 15026A   22157.55026466 -.00000091  00000+0  00000+0 0  9993
2 40663   0.0506 100.3103 0000559 187.1112  62.7512  1.00270896 25700
SKY MEXICO-1            
1 40664U 15026B   22157.51136734 -.00000223  00000+0  00000+0 0  9997
2 40664   0.0237  56.1299 0002018  25.3315 278.7698  1.00271188 25693
METEOSAT-11 (MSG-4)     
1 40732U 15034A   22157.31169522  .00000006  00000+0  00000+0 0  9999
2 40732   0.2696  51.6452 0001516  59.4221 255.5935  1.00275370 25264
STAR ONE C4             
1 40733U 15034B   22157.29782753 -.00000253  00000+0  00000+0 0  9999
2 40733   0.0266  25.5969 0002318  33.4944 232.8030  1.00269310 25265
WGS F7 (USA 263)        
1 40746U 15036A   22157.52727014  .00000028  00000+0  00000+0 0  9999
2 40746   0.0102 340.6416 0000076 210.1860  68.8875  1.00269339 25115
INTELSAT 34 (IS-34)     
1 40874U 15039A   22157.30070573 -.00000274  00000+0  00000+0 0  9995
2 40874   0.0131 359.6019 0000157  66.8825 240.9782  1.00271995 24867
EUTELSAT 8 WEST B       
1 40875U 15039B   22157.38193910 -.00000055  00000+0  00000+0 0  9992
2 40875   0.0652   8.3689 0006073  60.7674 315.1269  1.00271557 24897
GSAT-6                  
1 40880U 15041A   22157.54354743 -.00000150  00000+0  00000+0 0  9998
2 40880   0.0393  94.6159 0002958 349.4572  89.0889  1.00272022 24856
INMARSAT 5-F3           
1 40882U 15042A   22157.30307538  .00000061  00000+0  00000+0 0  9995
2 40882   0.0179 350.3302 0000430 126.0268  67.0546  1.00272128 24804
MUOS-4                  
1 40887U 15044A   22157.57429663 -.00000083  00000+0  00000+0 0  9990
2 40887   2.5530   7.3397 0055864   1.9960 167.4013  1.00272005 24809
TJS-1                   
1 40892U 15046A   22157.57036396 -.00000145  00000+0  00000+0 0  9994
2 40892   0.0257  91.3159 0000929 315.7569 208.1849  1.00271763 24806
EXPRESS-AM8             
1 40895U 15048A   22157.38071803 -.00000100  00000+0  00000+0 0  9991
2 40895   0.0199 230.3320 0000305 200.8456 306.6546  1.00271705 24620
BEIDOU 20               
1 40938U 15053A   22157.22559512 -.00000132  00000+0  00000+0 0  9991
2 40938  51.5187 276.0045 0044503 195.7968 317.2187  1.00295074 24595
SKY MUSTER 1 (NBN1A)    
1 40940U 15054A   22157.48328309 -.00000267  00000+0  00000+0 0  9990
2 40940   0.0117 301.4140 0001668 129.4640 138.2389  1.00271901 24504
